start=new Date('2022-03-28T00:00:00.000Z').valueOf();
sats=[{"CLASSIFICATION_TYPE":"U","CENTER_NAME":"EARTH","COUNTRY_CODE":"US","INCLINATION":"53.0441","MEAN_MOTION":"15.76771356","GP_ID":"199860089","RA_OF_ASC_NODE":"225.9945","PERIAPSIS":"336.646","ECCENTRICITY":"0.00043930","REF_FRAME":"TEME","REV_AT_EPOCH":"11972","OBJECT_NAME":"STARLINK-1214","ELEMENT_SET_NO":"999","PERIOD":"91.326","MEAN_ELEMENT_THEORY":"SGP4","MEAN_MOTION_DOT":"0.00068681","NORAD_CAT_ID":"45224","TIME_SYSTEM":"UTC","RCS_SIZE":"LARGE","EPOCH":"2022-03-27T15:34:37.490592","OBJECT_ID":"2020-012AY","FILE":"3377053","ARG_OF_PERICENTER":"350.9333","OBJECT_TYPE":"PAYLOAD","LAUNCH_DATE":"2020-02-17","TLE_LINE2":"2 45224  53.0441 225.9945 0004393 350.9333   9.1606 15.76771356119727","MEAN_ANOMALY":"9.1606","TLE_LINE1":"1 45224U 20012AY  22086.64904503  .00068681  00000-0  41922-3 0  9991","SEMIMAJOR_AXIS":"6717.732","BSTAR":"0.00041922000000","DECAY_DATE":null,"MEAN_MOTION_DDOT":"0.0000000000000","APOAPSIS":"342.548","SITE":"AFETR","EPHEMERIS_TYPE":"0"},{"EPHEMERIS_TYPE":"0","SITE":"AFETR","APOAPSIS":"548.579","MEAN_MOTION_DDOT":"0.0000000000000","SEMIMAJOR_AXIS":"6925.361","TLE_LINE2":"2 45225  53.0564   3.4370 0001953  51.8496 308.2669 15.06395808117896","TLE_LINE1":"1 45225U 20012AZ  22086.92325439  .00000828  00000-0  74483-4 0  9996","MEAN_ANOMALY":"308.2669","DECAY_DATE":null,"BSTAR":"0.00007448300000","OBJECT_TYPE":"PAYLOAD","LAUNCH_DATE":"2020-02-17","FILE":"3377053","ARG_OF_PERICENTER":"51.8496","OBJECT_ID":"2020-012AZ","TIME_SYSTEM":"UTC","NORAD_CAT_ID":"45225","RCS_SIZE":"LARGE","EPOCH":"2022-03-27T22:09:29.179296","PERIOD":"95.592","MEAN_ELEMENT_THEORY":"SGP4","ELEMENT_SET_NO":"999","MEAN_MOTION_DOT":"0.00000828","REV_AT_EPOCH":"11789","OBJECT_NAME":"STARLINK-1215","ECCENTRICITY":"0.00019530","PERIAPSIS":"545.874","RA_OF_ASC_NODE":"3.4370","REF_FRAME":"TEME","INCLINATION":"53.0564","GP_ID":"199860339","MEAN_MOTION":"15.06395808","CENTER_NAME":"EARTH","COUNTRY_CODE":"US","CLASSIFICATION_TYPE":"U"},{"SITE":"AFETR","APOAPSIS":"548.339","EPHEMERIS_TYPE":"0","SEMIMAJOR_AXIS":"6925.386","TLE_LINE2":"2 45226  53.0563   3.4128 0001572  58.9605 301.1539 15.06387873117851","TLE_LINE1":"1 45226U 20012BA  22086.93063584  .00000323  00000-0  40626-4 0  9990","MEAN_ANOMALY":"301.1539","DECAY_DATE":null,"BSTAR":"0.00004062600000","MEAN_MOTION_DDOT":"0.0000000000000","FILE":"3377053","ARG_OF_PERICENTER":"58.9605","OBJECT_TYPE":"PAYLOAD","LAUNCH_DATE":"2020-02-17","TIME_SYSTEM":"UTC","NORAD_CAT_ID":"45226","RCS_SIZE":"LARGE","EPOCH":"2022-03-27T22:20:06.936576","OBJECT_ID":"2020-012BA","REV_AT_EPOCH":"11785","OBJECT_NAME":"STARLINK-1217","PERIAPSIS":"546.162","RA_OF_ASC_NODE":"3.4128","REF_FRAME":"TEME","ECCENTRICITY":"0.00015720","PERIOD":"95.593","MEAN_ELEMENT_THEORY":"SGP4","ELEMENT_SET_NO":"999","MEAN_MOTION_DOT":"0.00000323","COUNTRY_CODE":"US","CENTER_NAME":"EARTH","INCLINATION":"53.0563","GP_ID":"199861590","MEAN_MOTION":"15.06387873","CLASSIFICATION_TYPE":"U"},{"OBJECT_TYPE":"PAYLOAD","LAUNCH_DATE":"2020-02-17","ARG_OF_PERICENTER":"53.5835","FILE":"3376641","OBJECT_ID":"2020-012BB","TIME_SYSTEM":"UTC","NORAD_CAT_ID":"45227","RCS_SIZE":"LARGE","EPOCH":"2022-03-27T11:43:10.768512","EPHEMERIS_TYPE":"0","APOAPSIS":"548.392","SITE":"AFETR","MEAN_MOTION_DDOT":"0.0000000000000","SEMIMAJOR_AXIS":"6925.363","TLE_LINE2":"2 45227  53.0555   5.3943 0001681  53.5835 306.5309 15.06395244117794","TLE_LINE1":"1 45227U 20012BB  22086.48831908  .00000285  00000-0  38043-4 0  9991","MEAN_ANOMALY":"306.5309","DECAY_DATE":null,"BSTAR":"0.00003804300000","CLASSIFICATION_TYPE":"U","MEAN_ELEMENT_THEORY":"SGP4","PERIOD":"95.592","ELEMENT_SET_NO":"999","MEAN_MOTION_DOT":"0.00000285","REV_AT_EPOCH":"11779","OBJECT_NAME":"STARLINK-1221","PERIAPSIS":"546.064","RA_OF_ASC_NODE":"5.3943","REF_FRAME":"TEME","ECCENTRICITY":"0.00016810","INCLINATION":"53.0555","GP_ID":"199825214","MEAN_MOTION":"15.06395244","COUNTRY_CODE":"US","CENTER_NAME":"EARTH"},{"CLASSIFICATION_TYPE":"U","MEAN_MOTION":"15.06396173","GP_ID":"199860589","INCLINATION":"53.0555","COUNTRY_CODE":"US","CENTER_NAME":"EARTH","MEAN_MOTION_DOT":"0.00001092","ELEMENT_SET_NO":"999","MEAN_ELEMENT_THEORY":"SGP4","PERIOD":"95.592","RA_OF_ASC_NODE":"3.8896","PERIAPSIS":"545.851","REF_FRAME":"TEME","ECCENTRICITY":"0.00019850","OBJECT_NAME":"STARLINK-1222","REV_AT_EPOCH":"11781","OBJECT_ID":"2020-012BC","RCS_SIZE":"LARGE","EPOCH":"2022-03-27T19:46:11.129088","NORAD_CAT_ID":"45228","TIME_SYSTEM":"UTC","LAUNCH_DATE":"2020-02-17","OBJECT_TYPE":"PAYLOAD","ARG_OF_PERICENTER":"60.2822","FILE":"3377053","MEAN_MOTION_DDOT":"0.0000000000000","BSTAR":"0.00009221300000","DECAY_DATE":null,"TLE_LINE1":"1 45228U 20012BC  22086.82373992  .00001092  00000-0  92213-4 0  9990","TLE_LINE2":"2 45228  53.0555   3.8896 0001985  60.2822 299.8364 15.06396173117813","MEAN_ANOMALY":"299.8364","SEMIMAJOR_AXIS":"6925.360","EPHEMERIS_TYPE":"0","APOAPSIS":"548.600","SITE":"AFETR"},{"SEMIMAJOR_AXIS":"6925.350","TLE_LINE2":"2 45229  53.0581   3.4733 0001790  53.6123 306.5031 15.06399678117835","TLE_LINE1":"1 45229U 20012BD  22086.91956788  .00000887  00000-0  78477-4 0  9998","MEAN_ANOMALY":"306.5031","DECAY_DATE":null,"BSTAR":"0.00007847700000","MEAN_MOTION_DDOT":"0.0000000000000","SITE":"AFETR","APOAPSIS":"548.454","EPHEMERIS_TYPE":"0","TIME_SYSTEM":"UTC","NORAD_CAT_ID":"45229","EPOCH":"2022-03-27T22:04:10.664832","RCS_SIZE":"LARGE","OBJECT_ID":"2020-012BD","FILE":"3377053","ARG_OF_PERICENTER":"53.6123","OBJECT_TYPE":"PAYLOAD","LAUNCH_DATE":"2020-02-17","COUNTRY_CODE":"US","CENTER_NAME":"EARTH","INCLINATION":"53.0581","GP_ID":"199860839","MEAN_MOTION":"15.06399678","OBJECT_NAME":"STARLINK-1226","REV_AT_EPOCH":"11783","PERIAPSIS":"545.975","RA_OF_ASC_NODE":"3.4733","REF_FRAME":"TEME","ECCENTRICITY":"0.00017900","MEAN_ELEMENT_THEORY":"SGP4","PERIOD":"95.592","ELEMENT_SET_NO":"999","MEAN_MOTION_DOT":"0.00000887","CLASSIFICATION_TYPE":"U"},{"MEAN_MOTION_DOT":"0.00001022","ELEMENT_SET_NO":"999","MEAN_ELEMENT_THEORY":"SGP4","PERIOD":"95.592","PERIAPSIS":"546.098","RA_OF_ASC_NODE":"3.4756","ECCENTRICITY":"0.00016080","REF_FRAME":"TEME","REV_AT_EPOCH":"11795","OBJECT_NAME":"STARLINK-1227","MEAN_MOTION":"15.06400712","GP_ID":"199861091","INCLINATION":"53.0559","COUNTRY_CODE":"US","CENTER_NAME":"EARTH","CLASSIFICATION_TYPE":"U","EPHEMERIS_TYPE":"0","SITE":"AFETR","APOAPSIS":"548.325","MEAN_MOTION_DDOT":"0.0000000000000","BSTAR":"0.00008748600000","DECAY_DATE":null,"MEAN_ANOMALY":"306.8028","TLE_LINE2":"2 45230  53.0559   3.4756 0001608  53.3108 306.8028 15.06400712117959","TLE_LINE1":"1 45230U 20012BE  22086.91588177  .00001022  00000-0  87486-4 0  9995","SEMIMAJOR_AXIS":"6925.346","LAUNCH_DATE":"2020-02-17","OBJECT_TYPE":"PAYLOAD","FILE":"3377053","ARG_OF_PERICENTER":"53.3108","OBJECT_ID":"2020-012BE","RCS_SIZE":"LARGE","EPOCH":"2022-03-27T21:58:52.184928","NORAD_CAT_ID":"45230","TIME_SYSTEM":"UTC"},{"SITE":"AFETR","APOAPSIS":"345.738","EPHEMERIS_TYPE":"0","BSTAR":"0.00004910300000","DECAY_DATE":null,"TLE_LINE1":"1 45231U 20012BF  22086.81823600  .00007402  00000-0  49103-4 0  9990","TLE_LINE2":"2 45231  53.0269 230.1553 0009033 290.2760  69.7288 15.76745734119664","MEAN_ANOMALY":"69.7288","SEMIMAJOR_AXIS":"6717.805","MEAN_MOTION_DDOT":"0.0000000000000","FILE":"3377053","ARG_OF_PERICENTER":"290.2760","LAUNCH_DATE":"2020-02-17","OBJECT_TYPE":"PAYLOAD","RCS_SIZE":"LARGE","EPOCH":"2022-03-27T19:38:15.590400","NORAD_CAT_ID":"45231","TIME_SYSTEM":"UTC","OBJECT_ID":"2020-012BF","RA_OF_ASC_NODE":"230.1553","PERIAPSIS":"333.602","ECCENTRICITY":"0.00090330","REF_FRAME":"TEME","OBJECT_NAME":"STARLINK-1229","REV_AT_EPOCH":"11966","MEAN_MOTION_DOT":"0.00007402","ELEMENT_SET_NO":"999","MEAN_ELEMENT_THEORY":"SGP4","PERIOD":"91.327","COUNTRY_CODE":"US","CENTER_NAME":"EARTH","MEAN_MOTION":"15.76745734","GP_ID":"199861328","INCLINATION":"53.0269","CLASSIFICATION_TYPE":"U"},{"MEAN_MOTION_DDOT":"0.0000000000000","BSTAR":"0.00018398000000","DECAY_DATE":null,"TLE_LINE2":"2 45232  53.0557   3.4266 0001836  56.9390 303.1775 15.06397479117943","MEAN_ANOMALY":"303.1775","TLE_LINE1":"1 45232U 20012BG  22086.92693994  .00002460  00000-0  18398-3 0  9994","SEMIMAJOR_AXIS":"6925.356","EPHEMERIS_TYPE":"0","SITE":"AFETR","APOAPSIS":"548.493","OBJECT_ID":"2020-012BG","RCS_SIZE":"LARGE","EPOCH":"2022-03-27T22:14:47.610816","NORAD_CAT_ID":"45232","TIME_SYSTEM":"UTC","LAUNCH_DATE":"2020-02-17","OBJECT_TYPE":"PAYLOAD","ARG_OF_PERICENTER":"56.9390","FILE":"3377053","MEAN_MOTION":"15.06397479","GP_ID":"199860090","INCLINATION":"53.0557","CENTER_NAME":"EARTH","COUNTRY_CODE":"US","MEAN_MOTION_DOT":"0.00002460","ELEMENT_SET_NO":"999","PERIOD":"95.592","MEAN_ELEMENT_THEORY":"SGP4","PERIAPSIS":"545.950","RA_OF_ASC_NODE":"3.4266","ECCENTRICITY":"0.00018360","REF_FRAME":"TEME","REV_AT_EPOCH":"11794","OBJECT_NAME":"STARLINK-1235","CLASSIFICATION_TYPE":"U"},{"CLASSIFICATION_TYPE":"U","INCLINATION":"53.0574","MEAN_MOTION":"15.06400208","GP_ID":"199860340","CENTER_NAME":"EARTH","COUNTRY_CODE":"US","ELEMENT_SET_NO":"999","PERIOD":"95.592","MEAN_ELEMENT_THEORY":"SGP4","MEAN_MOTION_DOT":"0.00000797","PERIAPSIS":"545.992","RA_OF_ASC_NODE":"23.8297","ECCENTRICITY":"0.00017630","REF_FRAME":"TEME","REV_AT_EPOCH":"11763","OBJECT_NAME":"STARLINK-1238","OBJECT_ID":"2020-012BH","NORAD_CAT_ID":"45233","TIME_SYSTEM":"UTC","EPOCH":"2022-03-27T20:10:03.222048","RCS_SIZE":"LARGE","OBJECT_TYPE":"PAYLOAD","LAUNCH_DATE":"2020-02-17","ARG_OF_PERICENTER":"62.6922","FILE":"3377053","MEAN_MOTION_DDOT":"0.0000000000000","TLE_LINE2":"2 45233  53.0574  23.8297 0001763  62.6922 297.4247 15.06400208117637","TLE_LINE1":"1 45233U 20012BH  22086.84031507  .00000797  00000-0  72411-4 0  9990","MEAN_ANOMALY":"297.4247","SEMIMAJOR_AXIS":"6925.348","BSTAR":"0.00007241100000","DECAY_DATE":null,"EPHEMERIS_TYPE":"0","APOAPSIS":"548.434","SITE":"AFETR"}];
